SES-2                   
1 37809U 11049A   16083.47085213 -.00000216  00000-0  00000+0 0  9999
2 37809   0.0138 206.4866 0002467 152.4567 264.9393  1.00269067 16534
ARABSAT-5C              
1 37810U 11049B   16084.52330237  .00000000  00000-0  10000-3 0  9992
2 37810   0.0649  21.3790 0003085   6.8640   2.5898  1.00272839 16441
EUTELSAT 7 WEST A       
1 37816U 11051A   16083.51636456 -.00000080  00000-0  00000+0 0  9995
2 37816   0.0786  34.0939 0002604 296.3108  29.5635  1.00272887 16492
QUETZSAT 1              
1 37826U 11054A   16084.14805513 -.00000260  00000-0  00000+0 0  9991
2 37826   0.0094 123.1814 0003061 245.9187 149.2319  1.00273567 16622
INTELSAT 18 (IS-18)     
1 37834U 11056A   16084.44558707  .00000000  00000-0  10000-3 0  9991
2 37834   0.0329 144.2560 0003159 158.7514 219.7779  1.00272766 16383
EUTELSAT 16A            
1 37836U 11057A   16083.28037867  .00000083  00000-0  00000+0 0  9990
2 37836   0.0670   5.4780 0004131 359.1840 293.4379  1.00271916 16309
VIASAT-1                
1 37843U 11059A   16084.55982900 -.00000040  00000-0  00000+0 0  9992
2 37843   0.0250 181.4364 0002634 181.0085 266.4445  1.00270156 16807
ASIASAT 7               
1 37933U 11069A   16084.62455942  .00000000  00000-0  10000-3 0  9992
2 37933   0.0209 108.4822 0001033 214.4587 189.9042  1.00267467 16004
BEIDOU IGSO 5           
1 37948U 11073A   16084.14376235 -.00000144  00000-0  10000-3 0  9997
2 37948  53.7715 315.9457 0036183 202.6706 170.4298  1.00275274 15936
LUCH 5A                 
1 37951U 11074B   16084.63669553  .00000000  00000-0  10000-3 0  9994
2 37951   1.8239 219.1667 0003545 164.9900 194.5206  1.00268196 15712
NIGCOMSAT 1R            
1 38014U 11077A   16083.97770245  .00000126  00000-0  00000+0 0  9999
2 38014   0.0413  50.3376 0002914 221.6812 304.2997  1.00271233 15557
FENGYUN 2F              
1 38049U 12002A   16083.71197244 -.00000375  00000-0  00000+0 0  9997
2 38049   0.8123  74.2243 0002226 142.3538 333.2165  1.00282974 15417
SES-4                   
1 38087U 12007A   16083.85494351 -.00000187  00000-0  00000+0 0  9999
2 38087   0.0253 313.6714 0002265  26.2674 127.5912  1.00272544 15014
BEIDOU G5               
1 38091U 12008A   16084.15649403  .00000040  00000-0  00000+0 0  9996
2 38091   1.5097  45.1053 0001999 221.4757  30.4410  1.00270630 15006
INTELSAT 22 (IS-22)     
1 38098U 12011A   16084.60040274  .00000000  00000-0  10000-3 0  9999
2 38098   0.0303  54.3890 0002563 316.2401 100.1264  1.00269586 14587
APSTAR 7                
1 38107U 12013A   16084.63351801  .00000000  00000-0  10000-3 0  9996
2 38107   0.0363  88.7069 0003222 288.1564 110.2167  1.00268170 14709
YAHSAT 1B               
1 38245U 12016A   16082.64009036  .00000104  00000-0  00000+0 0  9991
2 38245   0.0069 205.7076 0001799 112.9879 139.8708  1.00273578 14430
JCSAT-13                
1 38331U 12023A   16084.62235505  .00000000  00000-0  10000-3 0  9997
2 38331   0.0217 150.6770 0002320 227.2342 152.6236  1.00265395 14107
VINASAT-2               
1 38332U 12023B   16084.14712810  .00000000  00000-0  10000-3 0  9994
2 38332   0.0070   0.5425 0005259  80.4868 285.7216  1.00264509 14158
NIMIQ 6                 
1 38342U 12026A   16082.75124084 -.00000196  00000-0  00000+0 0  9995
2 38342   0.0206 164.7487 0002381 197.0391 358.2130  1.00270408 14112
CHINASAT 2A (ZX 2A)     
1 38352U 12028A   16083.78460088 -.00000312  00000-0  00000+0 0  9999
2 38352   0.0492 296.6085 0005060  55.6384 210.1400  1.00273003 14162
INTELSAT 19 (IS-19)     
1 38356U 12030A   16084.03347835 -.00000075  00000-0  00000+0 0  9995
2 38356   0.0062 183.3703 0002979 187.5030 349.1331  1.00270214 14041
ECHOSTAR 17             
1 38551U 12035A   16081.79825328 -.00000100  00000-0  00000+0 0  9994
2 38551   0.0240 175.4012 0001927 183.4968   1.1016  1.00270016 13637
METEOSAT-10 (MSG-3)     
1 38552U 12035B   16083.49622069 -.00000025  00000-0  00000+0 0  9997
2 38552   0.6178  86.8599 0001765 185.6231  87.4805  1.00266069 13744
SES-5                   
1 38652U 12036A   16084.05668743  .00000015  00000-0  00000+0 0  9999
2 38652   0.0492 263.8692 0002214  99.6808 203.7737  1.00273457 13592
TIANLIAN 1-03           
1 38730U 12040A   16084.13454008  .00000000  00000-0  10000-3 0  9996
2 38730   0.0872 266.8365 0004724 159.1256 184.9069  1.00274959 13516
INTELSAT 20 (IS-20)     
1 38740U 12043A   16083.75196838 -.00000044  00000-0  00000+0 0  9995
2 38740   0.0248 180.2139 0000585  96.1591 244.4812  1.00272750 13352
HYLAS 2                 
1 38741U 12043B   16082.41280646  .00000131  00000-0  00000+0 0  9995
2 38741   0.0148 232.1915 0002054 125.1676   2.6194  1.00269232 13360
INTELSAT 21 (IS-21)     
1 38749U 12045A   16082.46402243 -.00000308  00000-0  00000-0 0  9997
2 38749   0.0198  95.6099 0002427 257.3079 296.5131  1.00272818 13142
ASTRA 2F                
1 38778U 12051A   16082.42065626  .00000126  00000-0  00000-0 0  9999
2 38778   0.0542 228.9260 0002243  58.0186  73.0104  1.00270246  3666
GSAT-10                 
1 38779U 12051B   16083.93976308 -.00000183  00000-0  00000+0 0  9998
2 38779   0.0185 142.3440 0001273 208.3777 252.4204  1.00271811 12817
INTELSAT 23 (IS-23)     
1 38867U 12057A   16081.32605331 -.00000311  00000-0  00000+0 0  9991
2 38867   0.0133 244.8948 0002074 104.6642 254.0806  1.00272121 12617
BEIDOU G6               
1 38953U 12059A   16084.07915058 -.00000154  00000-0  10000-3 0  9994
2 38953   0.7426  76.7887 0002179 244.2546 329.4560  1.00272162 12573
LUCH 5B                 
1 38977U 12061A   16084.35066023 -.00000145  00000-0  00000+0 0  9998
2 38977   2.6480  78.2117 0003751 256.4450 317.5578  1.00271560 12702
YAMAL 300K              
1 38978U 12061B   16083.81727414  .00000052  00000-0  00000+0 0  9993
2 38978   0.0277 114.7616 0001427 305.3544 238.7827  1.00272595 12390
STAR ONE C3             
1 38991U 12062A   16084.49297544 -.00000266  00000-0  00000+0 0  9998
2 38991   0.0101 138.1994 0002510 213.2910 293.3535  1.00273714 12384
EUTELSAT 21B            
1 38992U 12062B   16084.50676407  .00000112  00000-0  10000-3 0  9994
2 38992   0.0674  18.9083 0002922 336.6696  30.8509  1.00272635 12412
ECHOSTAR 16             
1 39008U 12065A   16083.66666806 -.00000301  00000-0  00000+0 0  9990
2 39008   0.0208 181.4837 0002953 248.7658 289.7823  1.00269345 12331
CHINASAT 12 (ZX 12)     
1 39017U 12067A   16084.53542225 -.00000224  00000-0  00000+0 0  9991
2 39017   0.0123 132.8841 0003434 228.7210 101.0685  1.00272773 12240
EUTELSAT 70B            
1 39020U 12069A   16084.29809004 -.00000061  00000-0  00000+0 0  9990
2 39020   0.0641   9.0539 0001782 326.5968  24.3260  1.00273307 12148
YAMAL 402               
1 39022U 12070A   16083.91239802  .00000000  00000-0  10000-3 0  9992
2 39022   0.0169 239.5830 0001893 148.0733 177.6186  1.00273710 12124
SKYNET 5D               
1 39034U 12075A   16084.44097486  .00000000  00000-0  10000-3 0  9999
2 39034   0.0721  24.2446 0004284  11.8999 357.7022  1.00272901 12054
MEXSAT 3                
1 39035U 12075B   16082.81682032 -.00000048  00000-0  00000+0 0  9994
2 39035   0.0207 167.0488 0001967 177.8780  15.0482  1.00273485 11996
TDRS 11                 
1 39070U 13004A   16083.88375776  .00000070  00000-0  00000+0 0  9992
2 39070   5.9433 329.3317 0010953 291.0552  68.7116  1.00262666 11511
AMAZONAS 3              
1 39078U 13006A   16083.66499149 -.00000302  00000-0  00000+0 0  9998
2 39078   0.0268 206.5405 0001703 126.9944  26.4397  1.00272774 11499
AZERSPACE 1             
1 39079U 13006B   16084.79665182  .00000000  00000-0  10000-3 0  9995
2 39079   0.0195 110.3232 0001801 254.6176 150.5606  1.00271607 11467
EUTELSAT 117 WEST A     
1 39122U 13012A   16083.81956822 -.00000032  00000-0  00000+0 0  9998
2 39122   0.0229 177.5417 0002608 190.7924 351.6702  1.00269184 10996
ANIK G1                 
1 39127U 13014A   16084.22783131  .00000004  00000-0  10000-3 0  9995
2 39127   0.0192 115.9967 0001668 179.0603 221.7813  1.00269870 10795
CHINASAT 11 (ZX 11)     
1 39157U 13020A   16083.59048597 -.00000310  00000-0  00000+0 0  9990
2 39157   0.0174 238.8499 0001836  82.6690 170.5247  1.00269907 10675
EUTELSAT 7B             
1 39163U 13022A   16083.47675055  .00000028  00000-0  00000+0 0  9996
2 39163   0.0216  51.3088 0005869 312.4812 356.2144  1.00270753 10525
SES-6                   
1 39172U 13026A   16084.42090591 -.00000278  00000-0  00000+0 0  9990
2 39172   0.0461  34.4825 0002121 327.4447 291.4161  1.00273069 10258
IRNSS-1A                
1 39199U 13034A   16084.68100748 -.00000716  00000-0  10000-3 0  9994
2 39199  28.1355 122.9352 0017795 210.2111 149.8087  1.00273543 10180
ALPHASAT                
1 39215U 13038A   16083.51775651  .00000120  00000-0  00000+0 0  9992
2 39215   1.2205  32.1064 0001952 325.3594  35.1793  1.00273260  9789
INSAT-3D                
1 39216U 13038B   16084.26600185 -.00000173  00000-0  00000+0 0  9994
2 39216   0.0288 136.8470 0001171 218.5940   4.5430  1.00271430  9833
EUTELSAT 25B            
1 39233U 13044A   16084.28560442  .00000000  00000-0  10000-3 0  9996
2 39233   0.0382 344.6211 0001476  37.0749 288.7965  1.00272031  9420
GSAT-7                  
1 39234U 13044B   16082.29357376 -.00000101  00000-0  00000-0 0  9995
2 39234   0.0096 192.2571 0010637 101.4342  66.1769  1.00272336  7889
AMOS-4                  
1 39237U 13045A   16084.73072069  .00000000  00000-0  10000-3 0  9994
2 39237   0.0211 103.1770 0002021 253.2656 154.2337  1.00270124  9420
ASTRA 2E                
1 39285U 13056A   16084.62179132  .00000000  00000-0  10000-3 0  9996
2 39285   0.0848  58.3909 0002446 311.7070  64.7192  1.00272134  9130
SIRIUS FM-6             
1 39360U 13058A   16082.82055110 -.00000039  00000-0  00000+0 0  9999
2 39360   0.0175  94.6000 0000446 228.8166  36.5612  1.00270645  8862
RADUGA-1M 3             
1 39375U 13062A   16083.13441706 -.00000060  00000-0  00000+0 0  9999
2 39375   0.0079 193.8560 0001795 187.4178 278.1572  1.00273008  8646
